{
  "norad_id": 45436,
  "name": "ONEWEB-0095",
  "history": [
    {
      "epoch": "2026-03-28T20:36:48.578976Z",
      "apogee_km": 1218.9370506746345,
      "perigee_km": 1216.450935190649,
      "latitude_deg": 7.721894692918152e-06,
      "longitude_deg": -98.44531415085164,
      "height_km": 1219.8734526204566,
      "semi_major_axis_km": 7595.8309929326415,
      "eccentricity": 0.00016365,
      "inclination_deg": 87.8899,
      "raan_deg": 37.0304,
      "arg_perigee_deg": 55.3143,
      "mean_anomaly_deg": 304.8139,
      "mean_motion_rev_day": 13.1141402
    },
    {
      "epoch": "2026-03-29T02:06:24.794208Z",
      "apogee_km": 1218.9291110456943,
      "perigee_km": 1216.460465714471,
      "latitude_deg": 8.412897244228268e-05,
      "longitude_deg": 178.88278620071208,
      "height_km": 1219.882311849517,
      "semi_major_axis_km": 7595.831788380082,
      "eccentricity": 0.0001625,
      "inclination_deg": 87.89,
      "raan_deg": 36.985,
      "arg_perigee_deg": 55.4886,
      "mean_anomaly_deg": 304.6396,
      "mean_motion_rev_day": 13.11413814
    },
    {
      "epoch": "2026-03-30T01:54:41.520672Z",
      "apogee_km": 1218.8983083226467,
      "perigee_km": 1216.482835154833,
      "latitude_deg": -4.3717349707996626e-05,
      "longitude_deg": -179.36173361275632,
      "height_km": 1219.889137756031,
      "semi_major_axis_km": 7595.82757173874,
      "eccentricity": 0.000159,
      "inclination_deg": 87.8903,
      "raan_deg": 36.7878,
      "arg_perigee_deg": 55.2522,
      "mean_anomaly_deg": 304.8755,
      "mean_motion_rev_day": 13.11414906
    },
    {
      "epoch": "2026-03-30T05:34:25.648320Z",
      "apogee_km": 1218.8940289069606,
      "perigee_km": 1216.4872149666735,
      "latitude_deg": -3.0307354521658673e-05,
      "longitude_deg": 125.52359827653986,
      "height_km": 1219.895510569638,
      "semi_major_axis_km": 7595.827621936817,
      "eccentricity": 0.00015843,
      "inclination_deg": 87.8903,
      "raan_deg": 36.7574,
      "arg_perigee_deg": 55.4752,
      "mean_anomaly_deg": 304.6525,
      "mean_motion_rev_day": 13.11414893
    },
    {
      "epoch": "2026-03-30T09:14:09.760416Z",
      "apogee_km": 1218.8898821145885,
      "perigee_km": 1216.4909678972235,
      "latitude_deg": 5.095656314311463e-05,
      "longitude_deg": 70.40909763013396,
      "height_km": 1219.8945068068604,
      "semi_major_axis_km": 7595.827425005906,
      "eccentricity": 0.00015791,
      "inclination_deg": 87.8904,
      "raan_deg": 36.7271,
      "arg_perigee_deg": 55.2984,
      "mean_anomaly_deg": 304.8293,
      "mean_motion_rev_day": 13.11414944
    },
    {
      "epoch": "2026-03-30T22:03:14.136768Z",
      "apogee_km": 1218.8760410998511,
      "perigee_km": 1216.50143405777,
      "latitude_deg": 6.86719720222501e-05,
      "longitude_deg": -122.49174762512818,
      "height_km": 1219.9029100897894,
      "semi_major_axis_km": 7595.825737578811,
      "eccentricity": 0.00015631,
      "inclination_deg": 87.8905,
      "raan_deg": 36.6209,
      "arg_perigee_deg": 55.4833,
      "mean_anomaly_deg": 304.6443,
      "mean_motion_rev_day": 13.11415381
    },
    {
      "epoch": "2026-03-31T14:32:02.546592Z",
      "apogee_km": 1218.853211374435,
      "perigee_km": 1216.5182554661806,
      "latitude_deg": 5.142831985445282e-05,
      "longitude_deg": -10.506869139232135,
      "height_km": 1219.907665378626,
      "semi_major_axis_km": 7595.8227334203075,
      "eccentricity": 0.0001537,
      "inclination_deg": 87.8907,
      "raan_deg": 36.4843,
      "arg_perigee_deg": 55.2732,
      "mean_anomaly_deg": 304.8541,
      "mean_motion_rev_day": 13.11416159
    },
    {
      "epoch": "2026-04-01T14:20:19.086432Z",
      "apogee_km": 1218.8275274329253,
      "perigee_km": 1216.5381473339385,
      "latitude_deg": 3.8601367768038007e-05,
      "longitude_deg": -8.750504272902047,
      "height_km": 1219.9269396186203,
      "semi_major_axis_km": 7595.819837383431,
      "eccentricity": 0.0001507,
      "inclination_deg": 87.891,
      "raan_deg": 36.2872,
      "arg_perigee_deg": 55.8287,
      "mean_anomaly_deg": 304.2984,
      "mean_motion_rev_day": 13.11416909
    },
    {
      "epoch": "2026-04-02T14:08:35.586528Z",
      "apogee_km": 1218.80481212813,
      "perigee_km": 1216.5594879873724,
      "latitude_deg": -4.4677075147031765e-05,
      "longitude_deg": -6.994076316544917,
      "height_km": 1219.9443067656116,
      "semi_major_axis_km": 7595.819150057751,
      "eccentricity": 0.0001478,
      "inclination_deg": 87.8913,
      "raan_deg": 36.09,
      "arg_perigee_deg": 56.1754,
      "mean_anomaly_deg": 303.9514,
      "mean_motion_rev_day": 13.11417087
    },
    {
      "epoch": "2026-04-02T21:28:03.672480Z",
      "apogee_km": 1218.7907587614236,
      "perigee_km": 1216.569286115042,
      "latitude_deg": -4.349718166075352e-05,
      "longitude_deg": -117.22250608541415,
      "height_km": 1219.9437546552674,
      "semi_major_axis_km": 7595.817022438233,
      "eccentricity": 0.00014623,
      "inclination_deg": 87.8914,
      "raan_deg": 36.0294,
      "arg_perigee_deg": 55.8585,
      "mean_anomaly_deg": 304.2681,
      "mean_motion_rev_day": 13.11417638
    },
    {
      "epoch": "2026-04-03T19:26:28.003776Z",
      "apogee_km": 1218.7735910163492,
      "perigee_km": 1216.5844768353718,
      "latitude_deg": 4.215437937763344e-05,
      "longitude_deg": -87.90829984874938,
      "height_km": 1219.963376281505,
      "semi_major_axis_km": 7595.81603392586,
      "eccentricity": 0.0001441,
      "inclination_deg": 87.8917,
      "raan_deg": 35.8474,
      "arg_perigee_deg": 56.5842,
      "mean_anomaly_deg": 303.5424,
      "mean_motion_rev_day": 13.11417894
    },
    {
      "epoch": "2026-04-04T13:45:08.178912Z",
      "apogee_km": 1218.7415702999297,
      "perigee_km": 1216.6132231059737,
      "latitude_deg": 1.608996984335716e-05,
      "longitude_deg": -3.4793103720280123,
      "height_km": 1219.979344355772,
      "semi_major_axis_km": 7595.814396702951,
      "eccentricity": 0.0001401,
      "inclination_deg": 87.8916,
      "raan_deg": 35.6958,
      "arg_perigee_deg": 56.6365,
      "mean_anomaly_deg": 303.4897,
      "mean_motion_rev_day": 13.11418318
    },
    {
      "epoch": "2026-04-05T13:33:24.526944Z",
      "apogee_km": 1218.733989759764,
      "perigee_km": 1216.624479675058,
      "latitude_deg": -2.017930621297366e-05,
      "longitude_deg": -1.7220476836944743,
      "height_km": 1220.0022013135094,
      "semi_major_axis_km": 7595.81623471741,
      "eccentricity": 0.00013886,
      "inclination_deg": 87.8918,
      "raan_deg": 35.4988,
      "arg_perigee_deg": 57.6604,
      "mean_anomaly_deg": 302.4658,
      "mean_motion_rev_day": 13.11417842
    },
    {
      "epoch": "2026-04-05T20:52:52.599936Z",
      "apogee_km": 1218.724327713354,
      "perigee_km": 1216.6322882612285,
      "latitude_deg": 5.890530563276579e-06,
      "longitude_deg": -111.95042315287805,
      "height_km": 1220.0044298352896,
      "semi_major_axis_km": 7595.815307987291,
      "eccentricity": 0.00013771,
      "inclination_deg": 87.8917,
      "raan_deg": 35.4382,
      "arg_perigee_deg": 57.561,
      "mean_anomaly_deg": 302.5651,
      "mean_motion_rev_day": 13.11418082
    },
    {
      "epoch": "2026-04-07T05:50:29.041152Z",
      "apogee_km": 1218.6900409708323,
      "perigee_km": 1216.6666676767481,
      "latitude_deg": 6.02211933950903e-05,
      "longitude_deg": 112.02141287481653,
      "height_km": 1220.0424124153458,
      "semi_major_axis_km": 7595.81535432379,
      "eccentricity": 0.00013319,
      "inclination_deg": 87.8917,
      "raan_deg": 35.1655,
      "arg_perigee_deg": 58.8592,
      "mean_anomaly_deg": 301.2667,
      "mean_motion_rev_day": 13.1141807
    },
    {
      "epoch": "2026-04-07T20:29:25.339200Z",
      "apogee_km": 1218.6797219914697,
      "perigee_km": 1216.6820218911507,
      "latitude_deg": -2.007056938674394e-05,
      "longitude_deg": -108.43607894534301,
      "height_km": 1220.0566098765203,
      "semi_major_axis_km": 7595.81787194131,
      "eccentricity": 0.0001315,
      "inclination_deg": 87.8916,
      "raan_deg": 35.0442,
      "arg_perigee_deg": 59.1945,
      "mean_anomaly_deg": 300.9312,
      "mean_motion_rev_day": 13.11417418
    },
    {
      "epoch": "2026-04-08T05:38:45.518784Z",
      "apogee_km": 1218.6697030472205,
      "perigee_km": 1216.695701423003,
      "latitude_deg": -7.780836740285412e-06,
      "longitude_deg": 113.77803139502583,
      "height_km": 1220.069119951123,
      "semi_major_axis_km": 7595.819702235111,
      "eccentricity": 0.00012994,
      "inclination_deg": 87.8916,
      "raan_deg": 34.9684,
      "arg_perigee_deg": 59.5046,
      "mean_anomaly_deg": 300.621,
      "mean_motion_rev_day": 13.11416944
    },
    {
      "epoch": "2026-04-09T12:46:30.254304Z",
      "apogee_km": 1218.6569919399653,
      "perigee_km": 1216.7148919301717,
      "latitude_deg": 2.5839476435389256e-05,
      "longitude_deg": 5.305604285785176,
      "height_km": 1220.100503604614,
      "semi_major_axis_km": 7595.822941935068,
      "eccentricity": 0.00012784,
      "inclination_deg": 87.8918,
      "raan_deg": 34.7108,
      "arg_perigee_deg": 60.8677,
      "mean_anomaly_deg": 299.2579,
      "mean_motion_rev_day": 13.11416105
    },
    {
      "epoch": "2026-04-10T12:34:46.915104Z",
      "apogee_km": 1218.6405577831938,
      "perigee_km": 1216.7340058884529,
      "latitude_deg": -3.857759251212549e-05,
      "longitude_deg": 7.061657982035856,
      "height_km": 1220.1223598696754,
      "semi_major_axis_km": 7595.824281835823,
      "eccentricity": 0.0001255,
      "inclination_deg": 87.892,
      "raan_deg": 34.5139,
      "arg_perigee_deg": 61.6785,
      "mean_anomaly_deg": 298.4469,
      "mean_motion_rev_day": 13.11415758
    }
  ]
}